{"type": "FeatureCollection", "features": [ {"type": "Feature", "properties": {"norad_id": 34784, "name": "COSMOS 2251 DEB", "group": "cosmos-2251-debris", "lat": -15.566484449864006, "lon": -38.41055886989657, "alt_km": 725.927217146751, "timestamp": "2025-12-11T18:59:46.470560+00:00", "meta": {"OBJECT_NAME": "COSMOS 2251 DEB", "OBJECT_ID": "1993-036AAM", "EPOCH": "2025-12-10T16:46:20.786880", "MEAN_MOTION": 14.60764194, "ECCENTRICITY": 0.00494737, "INCLINATION": 74.0076, "RA_OF_ASC_NODE": 328.2622, "ARG_OF_PERICENTER": 138.1913, "MEAN_ANOMALY": 222.305, "EPHEMERIS_TYPE": 0, "CLASSIFICATION_TYPE": "U", "NORAD_CAT_ID": 34784, "ELEMENT_SET_NO": 999, "REV_AT_EPOCH": 88505, "BSTAR": 0.00075480523, "MEAN_MOTION_DOT": 3.719e-05, "MEAN_MOTION_DDOT": 0}, "tle": {"line1": "1 34784U 93036AAM 25344.69885170  .00003719  00000+0  75481-3 0  9996", "line2": "2 34784  74.0076 328.2622 0049473 138.1913 222.3050 14.60764194885052"}}, "geometry": {"type": "Point", "coordinates": [-38.41055886989657, -15.566484449864006]}}, {"type": "Feature", "properties": {"norad_id": 34790, "name": "COSMOS 2251 DEB", "group": "cosmos-2251-debris", "lat": -49.81619124595106, "lon": 85.20056360345735, "alt_km": 796.3576029941369, "timestamp": "2025-12-11T18:59:46.470574+00:00", "meta": {"OBJECT_NAME": "COSMOS 2251 DEB", "OBJECT_ID": "1993-036AAT", "EPOCH": "2025-12-11T05:11:30.453216", "MEAN_MOTION": 14.24623165, "ECCENTRICITY": 0.01007965, "INCLINATION": 74.0532, "RA_OF_ASC_NODE": 246.4479, "ARG_OF_PERICENTER": 308.3141, "MEAN_ANOMALY": 216.5903, "EPHEMERIS_TYPE": 0, "CLASSIFICATION_TYPE": "U", "NORAD_CAT_ID": 34790, "ELEMENT_SET_NO": 999, "REV_AT_EPOCH": 86551, "BSTAR": 0.0011081532, "MEAN_MOTION_DOT": 2.689e-05, "MEAN_MOTION_DDOT": 0}, "tle": {"line1": "1 34790U 93036AAT 25345.21632469  .00002689  00000+0  11082-2 0  9994", "line2": "2 34790  74.0532 246.4479 0100796 308.3141 216.5903 14.24623165865510"}}, "geometry": {"type": "Point", "coordinates": [85.20056360345735, -49.81619124595106]}}, {"type": "Feature", "properties": {"norad_id": 34792, "name": "COSMOS 2251 DEB", "group": "cosmos-2251-debris", "lat": 68.25604998875028, "lon": -142.55334325354525, "alt_km": 708.040838510502, "timestamp": "2025-12-11T18:59:46.470588+00:00", "meta": {"OBJECT_NAME": "COSMOS 2251 DEB", "OBJECT_ID": "1993-036AAV", "EPOCH": "2025-12-10T23:33:37.101024", "MEAN_MOTION": 14.55928187, "ECCENTRICITY": 0.0012492, "INCLINATION": 74.0179, "RA_OF_ASC_NODE": 173.0457, "ARG_OF_PERICENTER": 266.9446, "MEAN_ANOMALY": 245.2504, "EPHEMERIS_TYPE": 0, "CLASSIFICATION_TYPE": "U", "NORAD_CAT_ID": 34792, "ELEMENT_SET_NO": 999, "REV_AT_EPOCH": 87624, "BSTAR": 0.00139, "MEAN_MOTION_DOT": 6.09e-05, "MEAN_MOTION_DDOT": 0}, "tle": {"line1": "1 34792U 93036AAV 25344.98167941  .00006090  00000+0  13900-2 0  9998", "line2": "2 34792  74.0179 173.0457 0012492 266.9446 245.2504 14.55928187876246"}}, "geometry": {"type": "Point", "coordinates": [-142.55334325354525, 68.25604998875028]}}, {"type": "Feature", "properties": {"norad_id": 34793, "name": "COSMOS 2251 DEB", "group": "cosmos-2251-debris", "lat": -73.83300412095252, "lon": 170.4043226317757, "alt_km": 794.8678434386247, "timestamp": "2025-12-11T18:59:46.470598+00:00", "meta": {"OBJECT_NAME": "COSMOS 2251 DEB", "OBJECT_ID": "1993-036AAW", "EPOCH": "2025-12-11T05:05:12.314976", "MEAN_MOTION": 14.3864035, "ECCENTRICITY": 0.00502357, "INCLINATION": 74.0029, "RA_OF_ASC_NODE": 253.1892, "ARG_OF_PERICENTER": 47.704, "MEAN_ANOMALY": 104.6076, "EPHEMERIS_TYPE": 0, "CLASSIFICATION_TYPE": "U", "NORAD_CAT_ID": 34793, "ELEMENT_SET_NO": 999, "REV_AT_EPOCH": 87308, "BSTAR": 0.00038946502, "MEAN_MOTION_DOT": 1.185e-05, "MEAN_MOTION_DDOT": 0}, "tle": {"line1": "1 34793U 93036AAW 25345.21194809  .00001185  00000+0  38947-3 0  9998", "line2": "2 34793  74.0029 253.1892 0050235  47.7040 104.6076 14.38640350873081"}}, "geometry": {"type": "Point", "coordinates": [170.4043226317757, -73.83300412095252]}}, {"type": "Feature", "properties": {"norad_id": 34796, "name": "COSMOS 2251 DEB", "group": "cosmos-2251-debris", "lat": -26.22482590818748, "lon": -149.9857694846388, "alt_km": 665.6816392657347, "timestamp": "2025-12-11T18:59:46.470609+00:00", "meta": {"OBJECT_NAME": "COSMOS 2251 DEB", "OBJECT_ID": "1993-036AAZ", "EPOCH": "2025-12-10T02:22:55.926624", "MEAN_MOTION": 14.48668134, "ECCENTRICITY": 0.01002111, "INCLINATION": 74.0294, "RA_OF_ASC_NODE": 221.2955, "ARG_OF_PERICENTER": 323.9503, "MEAN_ANOMALY": 186.6627, "EPHEMERIS_TYPE": 0, "CLASSIFICATION_TYPE": "U", "NORAD_CAT_ID": 34796, "ELEMENT_SET_NO": 999, "REV_AT_EPOCH": 87989, "BSTAR": 0.00086649883, "MEAN_MOTION_DOT": 3.449e-05, "MEAN_MOTION_DDOT": 0}, "tle": {"line1": "1 34796U 93036AAZ 25344.09925841  .00003449  00000+0  86650-3 0  9993", "line2": "2 34796  74.0294 221.2955 0100211 323.9503 186.6627 14.48668134879895"}}, "geometry": {"type": "Point", "coordinates": [-149.9857694846388, -26.22482590818748]}}, {"type": "Feature", "properties": {"norad_id": 34797, "name": "COSMOS 2251 DEB", "group": "cosmos-2251-debris", "lat": 60.7670038982668, "lon": -109.14072481470534, "alt_km": 751.9473513259627, "timestamp": "2025-12-11T18:59:46.470619+00:00", "meta": {"OBJECT_NAME": "COSMOS 2251 DEB", "OBJECT_ID": "1993-036ABA", "EPOCH": "2025-12-08T02:15:30.483648", "MEAN_MOTION": 14.42690241, "ECCENTRICITY": 0.00721111, "INCLINATION": 73.9779, "RA_OF_ASC_NODE": 108.638, "ARG_OF_PERICENTER": 222.8023, "MEAN_ANOMALY": 136.7506, "EPHEMERIS_TYPE": 0, "CLASSIFICATION_TYPE": "U", "NORAD_CAT_ID": 34797, "ELEMENT_SET_NO": 999, "REV_AT_EPOCH": 87348, "BSTAR": 0.0033221371, "MEAN_MOTION_DOT": 0.00011397, "MEAN_MOTION_DDOT": 0}, "tle": {"line1": "1 34797U 93036ABA 25342.09410282  .00011397  00000+0  33221-2 0  9996", "line2": "2 34797  73.9779 108.6380 0072111 222.8023 136.7506 14.42690241873482"}}, "geometry": {"type": "Point", "coordinates": [-109.14072481470534, 60.7670038982668]}}, {"type": "Feature", "properties": {"norad_id": 34814, "name": "COSMOS 2251 DEB", "group": "cosmos-2251-debris", "lat": 57.50104878685967, "lon": 120.22791233136033, "alt_km": 768.5296774328399, "timestamp": "2025-12-11T18:59:46.470629+00:00", "meta": {"OBJECT_NAME": "COSMOS 2251 DEB", "OBJECT_ID": "1993-036ABD", "EPOCH": "2025-12-11T05:08:08.589120", "MEAN_MOTION": 14.36882836, "ECCENTRICITY": 0.0056325, "INCLINATION": 73.8959, "RA_OF_ASC_NODE": 328.2668, "ARG_OF_PERICENTER": 218.0941, "MEAN_ANOMALY": 154.8989, "EPHEMERIS_TYPE": 0, "CLASSIFICATION_TYPE": "U", "NORAD_CAT_ID": 34814, "ELEMENT_SET_NO": 999, "REV_AT_EPOCH": 87311, "BSTAR": 0.00121995, "MEAN_MOTION_DOT": 3.649e-05, "MEAN_MOTION_DDOT": 0}, "tle": {"line1": "1 34814U 93036ABD 25345.21398830  .00003649  00000+0  12200-2 0  9992", "line2": "2 34814  73.8959 328.2668 0056325 218.0941 154.8989 14.36882836873117"}}, "geometry": {"type": "Point", "coordinates": [120.22791233136033, 57.50104878685967]}}, {"type": "Feature", "properties": {"norad_id": 34815, "name": "COSMOS 2251 DEB", "group": "cosmos-2251-debris", "lat": 44.265851505965124, "lon": 47.47117051938128, "alt_km": 671.9205993768028, "timestamp": "2025-12-11T18:59:46.470640+00:00", "meta": {"OBJECT_NAME": "COSMOS 2251 DEB", "OBJECT_ID": "1993-036ABE", "EPOCH": "2025-12-11T03:46:30.732960", "MEAN_MOTION": 14.78278256, "ECCENTRICITY": 0.00588695, "INCLINATION": 74.0447, "RA_OF_ASC_NODE": 244.9077, "ARG_OF_PERICENTER": 314.3657, "MEAN_ANOMALY": 45.2703, "EPHEMERIS_TYPE": 0, "CLASSIFICATION_TYPE": "U", "NORAD_CAT_ID": 34815, "ELEMENT_SET_NO": 999, "REV_AT_EPOCH": 88604, "BSTAR": 0.0014141563, "MEAN_MOTION_DOT": 0.00010555, "MEAN_MOTION_DDOT": 0}, "tle": {"line1": "1 34815U 93036ABE 25345.15730015  .00010555  00000+0  14142-2 0  9992", "line2": "2 34815  74.0447 244.9077 0058869 314.3657  45.2703 14.78278256886044"}}, "geometry": {"type": "Point", "coordinates": [47.47117051938128, 44.265851505965124]}}, {"type": "Feature", "properties": {"norad_id": 34816, "name": "COSMOS 2251 DEB", "group": "cosmos-2251-debris", "lat": 47.40921261870743, "lon": -53.658807266821825, "alt_km": 976.2469247118761, "timestamp": "2025-12-11T18:59:46.470650+00:00", "meta": {"OBJECT_NAME": "COSMOS 2251 DEB", "OBJECT_ID": "1993-036ABF", "EPOCH": "2025-12-11T05:05:32.918784", "MEAN_MOTION": 13.58314937, "ECCENTRICITY": 0.0373498, "INCLINATION": 73.8863, "RA_OF_ASC_NODE": 145.6144, "ARG_OF_PERICENTER": 210.3453, "MEAN_ANOMALY": 331.9387, "EPHEMERIS_TYPE": 0, "CLASSIFICATION_TYPE": "U", "NORAD_CAT_ID": 34816, "ELEMENT_SET_NO": 999, "REV_AT_EPOCH": 82762, "BSTAR": 0.0017108749, "MEAN_MOTION_DOT": 1.937e-05, "MEAN_MOTION_DDOT": 0}, "tle": {"line1": "1 34816U 93036ABF 25345.21218656  .00001937  00000+0  17109-2 0  9992", "line2": "2 34816  73.8863 145.6144 0373498 210.3453 331.9387 13.58314937827629"}}, "geometry": {"type": "Point", "coordinates": [-53.658807266821825, 47.40921261870743]}}, {"type": "Feature", "properties": {"norad_id": 34818, "name": "COSMOS 2251 DEB", "group": "cosmos-2251-debris", "lat": -10.291197748523018, "lon": 121.66179936124308, "alt_km": 789.5742067668871, "timestamp": "2025-12-11T18:59:46.470661+00:00", "meta": {"OBJECT_NAME": "COSMOS 2251 DEB", "OBJECT_ID": "1993-036ABH", "EPOCH": "2025-12-11T07:00:52.985952", "MEAN_MOTION": 14.36964874, "ECCENTRICITY": 0.00240982, "INCLINATION": 74.0356, "RA_OF_ASC_NODE": 299.6, "ARG_OF_PERICENTER": 15.6095, "MEAN_ANOMALY": 113.4495, "EPHEMERIS_TYPE": 0, "CLASSIFICATION_TYPE": "U", "NORAD_CAT_ID": 34818, "ELEMENT_SET_NO": 999, "REV_AT_EPOCH": 87349, "BSTAR": 0.00039822572, "MEAN_MOTION_DOT": 1.157e-05, "MEAN_MOTION_DDOT": 0}, "tle": {"line1": "1 34818U 93036ABH 25345.29227993  .00001157  00000+0  39823-3 0  9998", "line2": "2 34818  74.0356 299.6000 0024098  15.6095 113.4495 14.36964874873496"}}, "geometry": {"type": "Point", "coordinates": [121.66179936124308, -10.291197748523018]}}]}